ONEWEB-0267             
1 48985U 21060U   25057.24780716  .00000159  00000+0  38307-3 0  9995
2 48985  87.9118 323.6365 0001958  83.5100 276.6254 13.16594403176965
ONEWEB-0268             
1 48986U 21060V   25057.74811151 -.00000052  00000+0 -16979-3 0  9994
2 48986  87.9120 323.5440 0001692  83.3118 276.8206 13.16594991177292
ONEWEB-0269             
1 48987U 21060W   25057.42513430  .00000171  00000+0  41376-3 0  9998
2 48987  87.9124 323.6411 0001656  79.5439 280.5879 13.16594291177021
ONEWEB-0270             
1 48988U 21060X   25057.74651963 -.00000046  00000+0 -15292-3 0  9999
2 48988  87.9118 323.5491 0002190  79.2989 280.8388 13.16597742177104
ONEWEB-0271             
1 48989U 21060Y   25057.42988184  .00000128  00000+0  30217-3 0  9996
2 48989  87.9120 323.5918 0001987  82.4942 277.6414 13.16593919177061
ONEWEB-0272             
1 48990U 21060Z   25057.68004215 -.00000005  00000+0 -45855-4 0  9991
2 48990  87.9121 323.5739 0001967  82.6862 277.4492 13.16594540177049
ONEWEB-0273             
1 48991U 21060AA  25057.47420233  .00001029  00000+0  26569-2 0  9995
2 48991  87.9117 323.5999 0001910  76.9202 283.2142 13.16603907176993
ONEWEB-0274             
1 48992U 21060AB  25057.72753834  .00000058  00000+0  11915-3 0  9991
2 48992  87.9126 323.5803 0001703  93.6700 266.4626 13.16593412177065
